{
  "type": "FeatureCollection",
  "features": [
    {
      "type": "Feature",
      "properties": {
        "norad_id": 34908,
        "name": "COSMOS 2251 DEB",
        "group": "cosmos-2251-debris",
        "lat": 63.337885687565546,
        "lon": 32.26854181366916,
        "alt_km": 745.3230733148621,
        "timestamp": "2025-12-26T22:28:06.180963+00:00",
        "meta_object_name": "COSMOS 2251 DEB",
        "meta_object_id": "1993-036ADD",
        "meta_epoch": "2025-12-24T10:43:39.700992",
        "meta_mean_motion": 14.37433526,
        "meta_eccentricity": 0.00406595,
        "meta_inclination": 74.0579,
        "meta_ra_of_asc_node": 2.1423,
        "meta_arg_of_pericenter": 14.7235,
        "meta_mean_anomaly": 137.436,
        "meta_ephemeris_type": 0,
        "meta_classification_type": "U",
        "meta_norad_cat_id": 34908,
        "meta_element_set_no": 999,
        "meta_rev_at_epoch": 87447,
        "meta_bstar": 0.0005476007,
        "meta_mean_motion_dot": 1.627e-05,
        "meta_mean_motion_ddot": 0,
        "tle_line1": "1 34908U 93036ADD 25358.44698728  .00001627  00000+0  54760-3 0  9996",
        "tle_line2": "2 34908  74.0579   2.1423 0040659  14.7235 137.4360 14.37433526874478"
      },
      "geometry": {
        "type": "Point",
        "coordinates": [
          32.26854181366916,
          63.337885687565546
        ]
      }
    },
    {
      "type": "Feature",
      "properties": {
        "norad_id": 34909,
        "name": "COSMOS 2251 DEB",
        "group": "cosmos-2251-debris",
        "lat": 66.613499545517,
        "lon": -172.86019785211892,
        "alt_km": 612.1750424798738,
        "timestamp": "2025-12-26T22:28:06.180973+00:00",
        "meta_object_name": "COSMOS 2251 DEB",
        "meta_object_id": "1993-036ADE",
        "meta_epoch": "2025-12-25T19:59:15.179712",
        "meta_mean_motion": 14.7793658,
        "meta_eccentricity": 0.00836064,
        "meta_inclination": 74.014,
        "meta_ra_of_asc_node": 50.8291,
        "meta_arg_of_pericenter": 183.5214,
        "meta_mean_anomaly": 176.5384,
        "meta_ephemeris_type": 0,
        "meta_classification_type": "U",
        "meta_norad_cat_id": 34909,
        "meta_element_set_no": 999,
        "meta_rev_at_epoch": 67045,
        "meta_bstar": 0.0004989948,
        "meta_mean_motion_dot": 3.776e-05,
        "meta_mean_motion_ddot": 0,
        "tle_line1": "1 34909U 93036ADE 25359.83281458  .00003776  00000+0  49899-3 0  9993",
        "tle_line2": "2 34909  74.0140  50.8291 0083606 183.5214 176.5384 14.77936580670451"
      },
      "geometry": {
        "type": "Point",
        "coordinates": [
          -172.86019785211892,
          66.613499545517
        ]
      }
    },
    {
      "type": "Feature",
      "properties": {
        "norad_id": 34910,
        "name": "COSMOS 2251 DEB",
        "group": "cosmos-2251-debris",
        "lat": 70.09556508487928,
        "lon": -153.99958837233046,
        "alt_km": 1117.7096921336715,
        "timestamp": "2025-12-26T22:28:06.180984+00:00",
        "meta_object_name": "COSMOS 2251 DEB",
        "meta_object_id": "1993-036ADF",
        "meta_epoch": "2025-12-23T22:45:30.280032",
        "meta_mean_motion": 13.37707493,
        "meta_eccentricity": 0.0467761,
        "meta_inclination": 73.8761,
        "meta_ra_of_asc_node": 83.7364,
        "meta_arg_of_pericenter": 200.8485,
        "meta_mean_anomaly": 282.4529,
        "meta_ephemeris_type": 0,
        "meta_classification_type": "U",
        "meta_norad_cat_id": 34910,
        "meta_element_set_no": 999,
        "meta_rev_at_epoch": 81674,
        "meta_bstar": 0.0010465,
        "meta_mean_motion_dot": 1.013e-05,
        "meta_mean_motion_ddot": 0,
        "tle_line1": "1 34910U 93036ADF 25357.94826713  .00001013  00000+0  10465-2 0  9992",
        "tle_line2": "2 34910  73.8761  83.7364 0467761 200.8485 282.4529 13.37707493816742"
      },
      "geometry": {
        "type": "Point",
        "coordinates": [
          -153.99958837233046,
          70.09556508487928
        ]
      }
    },
    {
      "type": "Feature",
      "properties": {
        "norad_id": 34911,
        "name": "COSMOS 2251 DEB",
        "group": "cosmos-2251-debris",
        "lat": -20.34756919769218,
        "lon": -148.4044109527773,
        "alt_km": 640.439333379979,
        "timestamp": "2025-12-26T22:28:06.180994+00:00",
        "meta_object_name": "COSMOS 2251 DEB",
        "meta_object_id": "1993-036ADG",
        "meta_epoch": "2025-12-26T01:52:35.742144",
        "meta_mean_motion": 14.59390445,
        "meta_eccentricity": 0.00842059,
        "meta_inclination": 74.0393,
        "meta_ra_of_asc_node": 219.323,
        "meta_arg_of_pericenter": 341.4186,
        "meta_mean_anomaly": 171.635,
        "meta_ephemeris_type": 0,
        "meta_classification_type": "U",
        "meta_norad_cat_id": 34911,
        "meta_element_set_no": 999,
        "meta_rev_at_epoch": 88781,
        "meta_bstar": 0.00010844477,
        "meta_mean_motion_dot": 5.07e-06,
        "meta_mean_motion_ddot": 0,
        "tle_line1": "1 34911U 93036ADG 25360.07819146  .00000507  00000+0  10844-3 0  9992",
        "tle_line2": "2 34911  74.0393 219.3230 0084205 341.4186 171.6350 14.59390445887811"
      },
      "geometry": {
        "type": "Point",
        "coordinates": [
          -148.4044109527773,
          -20.34756919769218
        ]
      }
    },
    {
      "type": "Feature",
      "properties": {
        "norad_id": 34913,
        "name": "COSMOS 2251 DEB",
        "group": "cosmos-2251-debris",
        "lat": 20.368226705679255,
        "lon": 70.37944196877194,
        "alt_km": 789.5313821200361,
        "timestamp": "2025-12-26T22:28:06.181005+00:00",
        "meta_object_name": "COSMOS 2251 DEB",
        "meta_object_id": "1993-036ADJ",
        "meta_epoch": "2025-12-25T11:24:46.560096",
        "meta_mean_motion": 14.34641195,
        "meta_eccentricity": 0.0020873,
        "meta_inclination": 74.0281,
        "meta_ra_of_asc_node": 259.159,
        "meta_arg_of_pericenter": 5.6867,
        "meta_mean_anomaly": 172.1148,
        "meta_ephemeris_type": 0,
        "meta_classification_type": "U",
        "meta_norad_cat_id": 34913,
        "meta_element_set_no": 999,
        "meta_rev_at_epoch": 65370,
        "meta_bstar": 4.8442e-05,
        "meta_mean_motion_dot": 1.11e-06,
        "meta_mean_motion_ddot": 0,
        "tle_line1": "1 34913U 93036ADJ 25359.47553889  .00000111  00000+0  48442-4 0  9992",
        "tle_line2": "2 34913  74.0281 259.1590 0020873   5.6867 172.1148 14.34641195653700"
      },
      "geometry": {
        "type": "Point",
        "coordinates": [
          70.37944196877194,
          20.368226705679255
        ]
      }
    },
    {
      "type": "Feature",
      "properties": {
        "norad_id": 34918,
        "name": "COSMOS 2251 DEB",
        "group": "cosmos-2251-debris",
        "lat": -44.570252076043026,
        "lon": 122.87944955877435,
        "alt_km": 673.8653431277044,
        "timestamp": "2025-12-26T22:28:06.181016+00:00",
        "meta_object_name": "COSMOS 2251 DEB",
        "meta_object_id": "1993-036ADP",
        "meta_epoch": "2025-12-25T13:22:56.208000",
        "meta_mean_motion": 14.61407505,
        "meta_eccentricity": 0.0032745,
        "meta_inclination": 74.0712,
        "meta_ra_of_asc_node": 289.1692,
        "meta_arg_of_pericenter": 254.3817,
        "meta_mean_anomaly": 282.6516,
        "meta_ephemeris_type": 0,
        "meta_classification_type": "U",
        "meta_norad_cat_id": 34918,
        "meta_element_set_no": 999,
        "meta_rev_at_epoch": 65523,
        "meta_bstar": 0.0018027,
        "meta_mean_motion_dot": 8.971e-05,
        "meta_mean_motion_ddot": 0,
        "tle_line1": "1 34918U 93036ADP 25359.55759500  .00008971  00000+0  18027-2 0  9990",
        "tle_line2": "2 34918  74.0712 289.1692 0032745 254.3817 282.6516 14.61407505655230"
      },
      "geometry": {
        "type": "Point",
        "coordinates": [
          122.87944955877435,
          -44.570252076043026
        ]
      }
    },
    {
      "type": "Feature",
      "properties": {
        "norad_id": 34924,
        "name": "COSMOS 2251 DEB",
        "group": "cosmos-2251-debris",
        "lat": 18.32619235723372,
        "lon": -123.07751237466874,
        "alt_km": 656.6971147428212,
        "timestamp": "2025-12-26T22:28:06.181027+00:00",
        "meta_object_name": "COSMOS 2251 DEB",
        "meta_object_id": "1993-036ADV",
        "meta_epoch": "2025-12-25T15:10:33.634272",
        "meta_mean_motion": 14.60138002,
        "meta_eccentricity": 0.0053304,
        "meta_inclination": 74.0404,
        "meta_ra_of_asc_node": 64.8485,
        "meta_arg_of_pericenter": 146.1764,
        "meta_mean_anomaly": 3.5611,
        "meta_ephemeris_type": 0,
        "meta_classification_type": "U",
        "meta_norad_cat_id": 34924,
        "meta_element_set_no": 999,
        "meta_rev_at_epoch": 87911,
        "meta_bstar": 0.00084049,
        "meta_mean_motion_dot": 4.099e-05,
        "meta_mean_motion_ddot": 0,
        "tle_line1": "1 34924U 93036ADV 25359.63233373  .00004099  00000+0  84049-3 0  9996",
        "tle_line2": "2 34924  74.0404  64.8485 0053304 146.1764   3.5611 14.60138002879119"
      },
      "geometry": {
        "type": "Point",
        "coordinates": [
          -123.07751237466874,
          18.32619235723372
        ]
      }
    }
  ]
}